[{"OBJECT_NAME":"STARLINK-5338","OBJECT_ID":"2023-010T","EPOCH":"2026-03-09T22:19:02.839008","MEAN_MOTION":14.98334815,"ECCENTRICITY":0.00027101,"INCLINATION":70.002,"RA_OF_ASC_NODE":23.9157,"ARG_OF_PERICENTER":265.6845,"MEAN_ANOMALY":94.4004,"EPHEMERIS_TYPE":0,"CLASSIFICATION_TYPE":"U","NORAD_CAT_ID":55286,"ELEMENT_SET_NO":999,"REV_AT_EPOCH":17330,"BSTAR":-8.1875883e-5,"MEAN_MOTION_DOT":-1.07e-5,"MEAN_MOTION_DDOT":0},{"OBJECT_NAME":"RROCI-2","OBJECT_ID":"2024-043J","EPOCH":"2026-03-09T21:40:56.693280","MEAN_MOTION":14.99383357,"ECCENTRICITY":0.00054118,"INCLINATION":97.8279,"RA_OF_ASC_NODE":200.9973,"ARG_OF_PERICENTER":337.3784,"MEAN_ANOMALY":22.7199,"EPHEMERIS_TYPE":0,"CLASSIFICATION_TYPE":"U","NORAD_CAT_ID":59106,"ELEMENT_SET_NO":999,"REV_AT_EPOCH":10988,"BSTAR":0.00035067832,"MEAN_MOTION_DOT":4.232e-5,"MEAN_MOTION_DDOT":0}]
